{
  "type": "FeatureCollection",
  "features": [
    {
      "type": "Feature",
      "properties": {
        "norad_id": 43647,
        "name": "BEIDOU-3 M16 (C35)",
        "group": "gnss",
        "lat": 38.08196542790807,
        "lon": -19.693162553147005,
        "alt_km": 21504.95011304946,
        "timestamp": "2025-12-27T19:21:58.997137+00:00",
        "meta_object_name": "BEIDOU-3 M16 (C35)",
        "meta_object_id": "2018-078A",
        "meta_epoch": "2025-12-26T02:56:19.347360",
        "meta_mean_motion": 1.86232218,
        "meta_eccentricity": 0.0007499,
        "meta_inclination": 54.2494,
        "meta_ra_of_asc_node": 306.0535,
        "meta_arg_of_pericenter": 20.7112,
        "meta_mean_anomaly": 339.3289,
        "meta_ephemeris_type": 0,
        "meta_classification_type": "U",
        "meta_norad_cat_id": 43647,
        "meta_element_set_no": 999,
        "meta_rev_at_epoch": 4893,
        "meta_bstar": 0,
        "meta_mean_motion_dot": -5.5e-07,
        "meta_mean_motion_ddot": 0,
        "tle_line1": "1 43647U 18078A   25360.12244615 -.00000055  00000+0  00000+0 0  9998",
        "tle_line2": "2 43647  54.2494 306.0535 0007499  20.7112 339.3289  1.86232218 48932"
      },
      "geometry": {
        "type": "Point",
        "coordinates": [
          -19.693162553147005,
          38.08196542790807
        ]
      }
    },
    {
      "type": "Feature",
      "properties": {
        "norad_id": 43648,
        "name": "BEIDOU-3 M15 (C34)",
        "group": "gnss",
        "lat": -29.446074248045974,
        "lon": -77.99556988154178,
        "alt_km": 21525.5044608239,
        "timestamp": "2025-12-27T19:21:58.997148+00:00",
        "meta_object_name": "BEIDOU-3 M15 (C34)",
        "meta_object_id": "2018-078B",
        "meta_epoch": "2025-12-27T07:48:48.610368",
        "meta_mean_motion": 1.86232284,
        "meta_eccentricity": 0.0004082,
        "meta_inclination": 54.2443,
        "meta_ra_of_asc_node": 306.0127,
        "meta_arg_of_pericenter": 20.0371,
        "meta_mean_anomaly": 339.9874,
        "meta_ephemeris_type": 0,
        "meta_classification_type": "U",
        "meta_norad_cat_id": 43648,
        "meta_element_set_no": 999,
        "meta_rev_at_epoch": 4897,
        "meta_bstar": 0,
        "meta_mean_motion_dot": -6e-07,
        "meta_mean_motion_ddot": 0,
        "tle_line1": "1 43648U 18078B   25361.32556262 -.00000060  00000+0  00000+0 0  9992",
        "tle_line2": "2 43648  54.2443 306.0127 0004082  20.0371 339.9874  1.86232284 48972"
      },
      "geometry": {
        "type": "Point",
        "coordinates": [
          -77.99556988154178,
          -29.446074248045974
        ]
      }
    },
    {
      "type": "Feature",
      "properties": {
        "norad_id": 43683,
        "name": "BEIDOU-3 G1 (C59)",
        "group": "gnss",
        "lat": 2.3933935129681885,
        "lon": 166.9918462668466,
        "alt_km": 35776.103586005884,
        "timestamp": "2025-12-27T19:21:58.997158+00:00",
        "meta_object_name": "BEIDOU-3 G1 (C59)",
        "meta_object_id": "2018-085A",
        "meta_epoch": "2025-12-27T11:57:18.832032",
        "meta_mean_motion": 1.00276338,
        "meta_eccentricity": 0.0002014,
        "meta_inclination": 2.6425,
        "meta_ra_of_asc_node": 102.5295,
        "meta_arg_of_pericenter": 59.0342,
        "meta_mean_anomaly": 253.9772,
        "meta_ephemeris_type": 0,
        "meta_classification_type": "U",
        "meta_norad_cat_id": 43683,
        "meta_element_set_no": 999,
        "meta_rev_at_epoch": 2633,
        "meta_bstar": 0,
        "meta_mean_motion_dot": -2.55e-06,
        "meta_mean_motion_ddot": 0,
        "tle_line1": "1 43683U 18085A   25361.49813463 -.00000255  00000+0  00000+0 0  9992",
        "tle_line2": "2 43683   2.6425 102.5295 0002014  59.0342 253.9772  1.00276338 26338"
      },
      "geometry": {
        "type": "Point",
        "coordinates": [
          166.9918462668466,
          2.3933935129681885
        ]
      }
    },
    {
      "type": "Feature",
      "properties": {
        "norad_id": 43687,
        "name": "COSMOS 2529 (757)",
        "group": "gnss",
        "lat": -59.319450601462904,
        "lon": 144.06969208873832,
        "alt_km": 19121.730415914833,
        "timestamp": "2025-12-27T19:21:58.997168+00:00",
        "meta_object_name": "COSMOS 2529 (757)",
        "meta_object_id": "2018-086A",
        "meta_epoch": "2025-12-26T23:06:55.462752",
        "meta_mean_motion": 2.13102033,
        "meta_eccentricity": 0.00068493,
        "meta_inclination": 64.293,
        "meta_ra_of_asc_node": 198.4076,
        "meta_arg_of_pericenter": 253.3441,
        "meta_mean_anomaly": 106.6358,
        "meta_ephemeris_type": 0,
        "meta_classification_type": "U",
        "meta_norad_cat_id": 43687,
        "meta_element_set_no": 999,
        "meta_rev_at_epoch": 5561,
        "meta_bstar": 0,
        "meta_mean_motion_dot": 1.18e-06,
        "meta_mean_motion_ddot": 0,
        "tle_line1": "1 43687U 18086A   25360.96314193  .00000118  00000+0  00000+0 0  9991",
        "tle_line2": "2 43687  64.2930 198.4076 0006849 253.3441 106.6358  2.13102033 55619"
      },
      "geometry": {
        "type": "Point",
        "coordinates": [
          144.06969208873832,
          -59.319450601462904
        ]
      }
    },
    {
      "type": "Feature",
      "properties": {
        "norad_id": 43706,
        "name": "BEIDOU-3 M17 (C36)",
        "group": "gnss",
        "lat": -28.6340349645723,
        "lon": 31.35072181261343,
        "alt_km": 21532.18326752899,
        "timestamp": "2025-12-27T19:21:58.997178+00:00",
        "meta_object_name": "BEIDOU-3 M17 (C36)",
        "meta_object_id": "2018-093A",
        "meta_epoch": "2025-12-26T03:36:39.806208",
        "meta_mean_motion": 1.86228273,
        "meta_eccentricity": 0.00059945,
        "meta_inclination": 54.1735,
        "meta_ra_of_asc_node": 188.1665,
        "meta_arg_of_pericenter": 306.9478,
        "meta_mean_anomaly": 238.7851,
        "meta_ephemeris_type": 0,
        "meta_classification_type": "U",
        "meta_norad_cat_id": 43706,
        "meta_element_set_no": 999,
        "meta_rev_at_epoch": 4831,
        "meta_bstar": 0,
        "meta_mean_motion_dot": 1.19e-06,
        "meta_mean_motion_ddot": 0,
        "tle_line1": "1 43706U 18093A   25360.15046072  .00000119  00000+0  00000+0 0  9991",
        "tle_line2": "2 43706  54.1735 188.1665 0005994 306.9478 238.7851  1.86228273 48315"
      },
      "geometry": {
        "type": "Point",
        "coordinates": [
          31.35072181261343,
          -28.6340349645723
        ]
      }
    },
    {
      "type": "Feature",
      "properties": {
        "norad_id": 43707,
        "name": "BEIDOU-3 M18 (C37)",
        "group": "gnss",
        "lat": -39.029065212644355,
        "lon": 152.24637233815136,
        "alt_km": 21521.111119197827,
        "timestamp": "2025-12-27T19:21:58.997189+00:00",
        "meta_object_name": "BEIDOU-3 M18 (C37)",
        "meta_object_id": "2018-093B",
        "meta_epoch": "2025-12-26T19:24:55.355328",
        "meta_mean_motion": 1.86226544,
        "meta_eccentricity": 0.00060982,
        "meta_inclination": 54.1738,
        "meta_ra_of_asc_node": 188.1361,
        "meta_arg_of_pericenter": 353.9736,
        "meta_mean_anomaly": 6.054,
        "meta_ephemeris_type": 0,
        "meta_classification_type": "U",
        "meta_norad_cat_id": 43707,
        "meta_element_set_no": 999,
        "meta_rev_at_epoch": 4832,
        "meta_bstar": 0,
        "meta_mean_motion_dot": 1.25e-06,
        "meta_mean_motion_ddot": 0,
        "tle_line1": "1 43707U 18093B   25360.80897402  .00000125  00000+0  00000+0 0  9992",
        "tle_line2": "2 43707  54.1738 188.1361 0006098 353.9736   6.0540  1.86226544 48328"
      },
      "geometry": {
        "type": "Point",
        "coordinates": [
          152.24637233815136,
          -39.029065212644355
        ]
      }
    },
    {
      "type": "Feature",
      "properties": {
        "norad_id": 43873,
        "name": "GPS BIII-1  (PRN 04)",
        "group": "gnss",
        "lat": -33.79900983878982,
        "lon": -53.755406965764884,
        "alt_km": 20097.91150400488,
        "timestamp": "2025-12-27T19:21:58.997199+00:00",
        "meta_object_name": "GPS BIII-1  (PRN 04)",
        "meta_object_id": "2018-109A",
        "meta_epoch": "2025-12-26T12:23:38.434848",
        "meta_mean_motion": 2.00553927,
        "meta_eccentricity": 0.0037609,
        "meta_inclination": 55.5742,
        "meta_ra_of_asc_node": 99.0034,
        "meta_arg_of_pericenter": 195.6344,
        "meta_mean_anomaly": 174.7569,
        "meta_ephemeris_type": 0,
        "meta_classification_type": "U",
        "meta_norad_cat_id": 43873,
        "meta_element_set_no": 999,
        "meta_rev_at_epoch": 5161,
        "meta_bstar": 0,
        "meta_mean_motion_dot": 1.3e-07,
        "meta_mean_motion_ddot": 0,
        "tle_line1": "1 43873U 18109A   25360.51641707  .00000013  00000+0  00000+0 0  9993",
        "tle_line2": "2 43873  55.5742  99.0034 0037609 195.6344 174.7569  2.00553927 51612"
      },
      "geometry": {
        "type": "Point",
        "coordinates": [
          -53.755406965764884,
          -33.79900983878982
        ]
      }
    }
  ]
}